NANOSATC-BR1            
1 40024U 14033Q   26068.98267556  .00020336  00000+0  74295-3 0  9994
2 40024  98.0845  92.7804 0004644 147.6715 212.4808 15.28136801638811
STARLINK-33646          
1 63280U 25053R   26068.47817681  .00031363  00000+0  11436-2 0  9990
2 63280  42.9971 242.7529 0001018 236.3749 123.7006 15.27602226 56168
